NORAD_CAT_ID,OBJECT_NAME,OBJECT_TYPE,EPOCH,MEAN_MOTION,ECCENTRICITY,INCLINATION,RA_OF_ASC_NODE,ARG_OF_PERICENTER,MEAN_ANOMALY,BSTAR,MEAN_MOTION_DOT,MEAN_MOTION_DDOT,TLE_LINE0,TLE_LINE1,TLE_LINE2,SEMIMAJOR_AXIS,PERIOD,APOGEE,PERIGEE,DECAYED
52544.0,STARLINK-3944,PAYLOAD,2023-08-26 09:50:50,15.08838988,0.0001323,53.2171,332.3648,102.9757,257.1383,-1.7262e-05,-5.63e-06,0.0,0 STARLINK-3944,1 52544U 22051M   23238.41030766 -.00000563  00000-0 -17262-4 0  9993,2 52544  53.2171 332.3648 0001323 102.9757 257.1383 15.08838988 71601,6917.883,95.438,540.664,538.833,0.0
52544.0,STARLINK-3944,PAYLOAD,2023-08-26 11:26:13,15.08839243,0.0001528,53.2157,332.0675,110.6516,249.464,2.3112e-05,8e-07,0.0,0 STARLINK-3944,1 52544U 22051M   23238.47654591  .00000080  00000-0  23112-4 0  9990,2 52544  53.2157 332.0675 0001528 110.6516 249.4640 15.08839243 71546,6917.883,95.438,540.805,538.691,0.0
52544.0,STARLINK-3944,PAYLOAD,2023-08-26 17:47:45,15.08844655,0.000148,53.2158,330.8787,107.1235,252.9919,7.0317e-05,8.31e-06,0.0,0 STARLINK-3944,1 52544U 22051M   23238.74150128  .00000831  00000-0  70317-4 0  9990,2 52544  53.2158 330.8787 0001480 107.1235 252.9919 15.08844655 71656,6917.866,95.437,540.755,538.707,0.0
52544.0,STARLINK-3944,PAYLOAD,2023-08-27 09:41:37,15.08835251,0.0001361,53.2172,327.907,94.8984,265.2164,1.4546e-05,-5.6e-07,0.0,0 STARLINK-3944,1 52544U 22051M   23239.40391094 -.00000056  00000-0  14546-4 0  9995,2 52544  53.2172 327.9070 0001361  94.8984 265.2164 15.08835251 71757,6917.895,95.438,540.701,538.818,0.0
52544.0,STARLINK-3944,PAYLOAD,2023-08-27 16:03:09,15.08842765,0.0001359,53.2173,326.7135,99.9835,260.1311,3.1859e-05,2.19e-06,0.0,0 STARLINK-3944,1 52544U 22051M   23239.66886445  .00000219  00000-0  31859-4 0  9998,2 52544  53.2173 326.7135 0001359  99.9835 260.1311 15.08842765 71795,6917.872,95.437,540.677,538.797,0.0
52544.0,STARLINK-3944,PAYLOAD,2023-08-28 09:32:24,15.08839069,0.0001479,53.2161,323.4426,106.9991,253.1163,9.1531e-05,1.169e-05,0.0,0 STARLINK-3944,1 52544U 22051M   23240.39750892  .00001169  00000-0  91531-4 0  9994,2 52544  53.2161 323.4426 0001479 106.9991 253.1163 15.08839069 71907,6917.883,95.438,540.771,538.725,0.0
52544.0,STARLINK-3944,PAYLOAD,2023-08-28 12:43:10,15.08843565,0.0001292,53.216,322.8497,96.4964,263.6176,0.00010889,1.446e-05,0.0,0 STARLINK-3944,1 52544U 22051M   23240.52998500  .00001446  00000-0  10889-3 0  9993,2 52544  53.2160 322.8497 0001292  96.4964 263.6176 15.08843565 71853,6917.869,95.437,540.628,538.841,0.0
52544.0,STARLINK-3944,PAYLOAD,2023-08-29 15:44:43,15.08848177,0.0001307,53.2165,317.7953,99.1307,260.9833,8.0631e-05,9.96e-06,0.0,0 STARLINK-3944,1 52544U 22051M   23241.65606458  .00000996  00000-0  80631-4 0  9998,2 52544  53.2165 317.7953 0001307  99.1307 260.9833 15.08848177 72097,6917.855,95.437,540.625,538.816,0.0
52544.0,STARLINK-3944,PAYLOAD,2023-08-30 04:27:49,15.08834343,0.0001422,53.217,315.417,92.7348,267.3807,5.8818e-05,6.48e-06,0.0,0 STARLINK-3944,1 52544U 22051M   23242.18599478  .00000648  00000-0  58818-4 0  9996,2 52544  53.2170 315.4170 0001422  92.7348 267.3807 15.08834343 72172,6917.898,95.438,540.746,538.779,0.0
52544.0,STARLINK-3944,PAYLOAD,2023-08-30 17:10:54,15.08842366,0.000135,53.2164,313.0374,85.2527,274.8619,4.7844e-05,4.74e-06,0.0,0 STARLINK-3944,1 52544U 22051M   23242.71591099  .00000474  00000-0  47844-4 0  9990,2 52544  53.2164 313.0374 0001350  85.2527 274.8619 15.08842366 72258,6917.873,95.437,540.672,538.804,0.0
52544.0,STARLINK-3944,PAYLOAD,2023-08-31 12:15:32,15.0884562,0.0001243,53.216,309.4682,86.1958,273.9177,6.3537e-05,7.24e-06,0.0,0 STARLINK-3944,1 52544U 22051M   23243.51078888  .00000724  00000-0  63537-4 0  9990,2 52544  53.2160 309.4682 0001243  86.1958 273.9177 15.08845620 72305,6917.863,95.437,540.588,538.868,0.0
52544.0,STARLINK-3944,PAYLOAD,2023-09-01 10:30:56,15.08825782,0.0001129,53.2161,305.3043,89.0311,271.081,0.00033589,5.06e-05,0.0,0 STARLINK-3944,1 52544U 22051M   23244.43815660  .00005060  00000-0  33589-3 0  9990,2 52544  53.2161 305.3043 0001129  89.0311 271.0810 15.08825782 72513,6917.924,95.438,540.57,539.008,0.0
52544.0,STARLINK-3944,PAYLOAD,2023-09-01 12:06:19,15.08843804,0.0001257,53.2164,305.0064,85.4329,274.6807,8.7924e-05,1.112e-05,0.0,0 STARLINK-3944,1 52544U 22051M   23244.50438915  .00001112  00000-0  87924-4 0  9999,2 52544  53.2164 305.0064 0001257  85.4329 274.6807 15.08843804 72450,6917.869,95.437,540.603,538.864,0.0
52544.0,STARLINK-3944,PAYLOAD,2023-09-02 11:57:06,15.08844603,0.0001411,53.2154,300.5463,93.377,266.7383,7.53e-05,9.11e-06,0.0,0 STARLINK-3944,1 52544U 22051M   23245.49798667  .00000911  00000-0  75300-4 0  9992,2 52544  53.2154 300.5463 0001411  93.3770 266.7383 15.08844603 72608,6917.866,95.437,540.707,538.755,0.0
52544.0,STARLINK-3944,PAYLOAD,2023-09-03 08:37:06,15.08843481,0.0001436,53.2157,296.68,94.5683,265.5474,5.6476e-05,6.11e-06,0.0,0 STARLINK-3944,1 52544U 22051M   23246.35910622  .00000611  00000-0  56476-4 0  9995,2 52544  53.2157 296.6800 0001436  94.5683 265.5474 15.08843481 72739,6917.87,95.437,540.728,538.741,0.0
52544.0,STARLINK-3944,PAYLOAD,2023-09-03 14:58:38,15.0884809,0.0001471,53.2159,295.4899,97.4605,262.6554,9.4205e-05,1.212e-05,0.0,0 STARLINK-3944,1 52544U 22051M   23246.62406118  .00001212  00000-0  94205-4 0  9995,2 52544  53.2159 295.4899 0001471  97.4605 262.6554 15.08848090 72841,6917.856,95.437,540.738,538.703,0.0
52544.0,STARLINK-3944,PAYLOAD,2023-09-04 10:03:18,15.08830601,0.0001563,53.2152,291.923,94.5572,265.5599,-4.9572e-05,-1.077e-05,0.0,0 STARLINK-3944,1 52544U 22051M   23247.41896019 -.00001077  00000-0 -49572-4 0  9994,2 52544  53.2152 291.9230 0001563  94.5572 265.5599 15.08830601 72960,6917.909,95.438,540.855,538.693,0.0
52544.0,STARLINK-3944,PAYLOAD,2023-09-05 03:32:32,15.08839143,0.0001527,53.2158,288.6519,108.5425,251.5733,2.0058e-05,3.1e-07,0.0,0 STARLINK-3944,1 52544U 22051M   23248.14759646  .00000031  00000-0  20058-4 0  9994,2 52544  53.2158 288.6519 0001527 108.5425 251.5733 15.08839143 73070,6917.883,95.438,540.804,538.692,0.0
52544.0,STARLINK-3944,PAYLOAD,2023-09-06 03:23:19,15.08830066,0.0001481,53.2153,284.1912,95.8953,264.2208,0.00019434,2.805e-05,0.0,0 STARLINK-3944,1 52544U 22051M   23249.14120253  .00002805  00000-0  19434-3 0  9997,2 52544  53.2153 284.1912 0001481  95.8953 264.2208 15.08830066 73226,6917.911,95.438,540.8,538.751,0.0
52544.0,STARLINK-3944,PAYLOAD,2023-09-06 14:31:01,15.08839512,0.0001455,53.2153,282.1092,96.0561,264.0597,0.00018703,2.69e-05,0.0,0 STARLINK-3944,1 52544U 22051M   23249.60487934  .00002690  00000-0  18703-3 0  9990,2 52544  53.2153 282.1092 0001455  96.0561 264.0597 15.08839512 73293,6917.882,95.438,540.753,538.74,0.0
52544.0,STARLINK-3944,PAYLOAD,2023-09-07 11:11:02,15.0884116,0.0001484,53.2158,278.2421,94.6341,265.482,6.2423e-05,7.06e-06,0.0,0 STARLINK-3944,1 52544U 22051M   23250.46600165  .00000706  00000-0  62423-4 0  9994,2 52544  53.2158 278.2421 0001484  94.6341 265.4820 15.08841160 73355,6917.877,95.437,540.768,538.715,0.0
52544.0,STARLINK-3944,PAYLOAD,2023-09-07 14:21:48,15.0884384,0.0001487,53.2159,277.6469,96.183,263.9332,7.5114e-05,9.08e-06,0.0,0 STARLINK-3944,1 52544U 22051M   23250.59847934  .00000908  00000-0  75114-4 0  9990,2 52544  53.2159 277.6469 0001487  96.1830 263.9332 15.08843840 73374,6917.869,95.437,540.762,538.705,0.0
52544.0,STARLINK-3944,PAYLOAD,2023-09-08 09:26:26,15.08846512,0.0001443,53.2158,274.0782,91.0041,269.1116,8.5048e-05,1.066e-05,0.0,0 STARLINK-3944,1 52544U 22051M   23251.39335701  .00001066  00000-0  85048-4 0  9996,2 52544  53.2158 274.0782 0001443  91.0041 269.1116 15.08846512 73560,6917.86,95.437,540.724,538.727,0.0
52544.0,STARLINK-3944,PAYLOAD,2023-09-08 18:58:45,15.08840421,0.0001491,53.2159,272.2944,85.0554,275.0609,9.5877e-05,1.238e-05,0.0,0 STARLINK-3944,1 52544U 22051M   23251.79080049  .00001238  00000-0  95877-4 0  9994,2 52544  53.2159 272.2944 0001491  85.0554 275.0609 15.08840421 73551,6917.879,95.438,540.776,538.713,0.0
52544.0,STARLINK-3944,PAYLOAD,2023-09-09 07:41:51,15.08825388,0.0001543,53.2156,269.9157,110.7695,249.3462,-8.5265e-05,-1.644e-05,0.0,0 STARLINK-3944,1 52544U 22051M   23252.32073607 -.00001644  00000-0 -85265-4 0  9999,2 52544  53.2156 269.9157 0001543 110.7695 249.3462 15.08825388 73700,6917.925,95.438,540.857,538.723,0.0
52544.0,STARLINK-3944,PAYLOAD,2023-09-09 12:28:01,15.0882645,0.000177,53.2176,269.0205,107.9611,252.1574,-8.1827e-05,-1.59e-05,0.0,0 STARLINK-3944,1 52544U 22051M   23252.51945705 -.00001590  00000-0 -81827-4 0  9997,2 52544  53.2176 269.0205 0001770 107.9611 252.1574 15.08826450 73667,6917.922,95.438,541.011,538.562,0.0
52544.0,STARLINK-3944,PAYLOAD,2023-09-09 18:49:33,15.08830842,0.0001596,53.2164,267.8327,93.6034,266.5141,-3.0942e-05,-7.8e-06,0.0,0 STARLINK-3944,1 52544U 22051M   23252.78441500 -.00000780  00000-0 -30942-4 0  9992,2 52544  53.2164 267.8327 0001596  93.6034 266.5141 15.08830842 73772,6917.908,95.438,540.877,538.669,0.0
52544.0,STARLINK-3944,PAYLOAD,2023-09-10 05:57:14,15.08840479,0.0001524,53.2156,265.7524,89.7624,270.3542,3.016e-05,1.92e-06,0.0,0 STARLINK-3944,1 52544U 22051M   23253.24808903  .00000192  00000-0  30160-4 0  9995,2 52544  53.2156 265.7524 0001524  89.7624 270.3542 15.08840479 73844,6917.879,95.438,540.798,538.69,0.0
52544.0,STARLINK-3944,PAYLOAD,2023-09-11 07:23:24,15.08847012,0.0001455,53.2153,260.9958,83.4393,276.6765,0.00030798,4.618e-05,0.0,0 STARLINK-3944,1 52544U 22051M   23254.30792129  .00004618  00000-0  30798-3 0  9998,2 52544  53.2153 260.9958 0001455  83.4393 276.6765 15.08847012 74001,6917.859,95.437,540.731,538.717,0.0
52544.0,STARLINK-3944,PAYLOAD,2023-09-11 12:09:33,15.0885277,0.0001434,53.215,260.1033,82.0298,278.0857,0.00032056,4.819e-05,0.0,0 STARLINK-3944,1 52544U 22051M   23254.50663825  .00004819  00000-0  32056-3 0  9992,2 52544  53.2150 260.1033 0001434  82.0298 278.0857 15.08852770 73969,6917.841,95.437,540.698,538.714,0.0
